SL-16 R/B               
1 22566U 93016B   25355.82263183  .00000321  00000+0  18911-3 0  9991
2 22566  71.0081  18.7269 0008029  79.6367 280.5661 14.15290365691156
COSMOS 2242             
1 22626U 93024A   25355.46407910  .00001654  00000+0  14439-3 0  9996
2 22626  82.5186 341.5053 0015537 202.8193 157.2340 14.96138900768696
SL-16 R/B               
1 22803U 93059B   25355.90778826  .00000192  00000+0  11856-3 0  9993
2 22803  70.9879 175.1529 0018423 322.7080  37.2763 14.17213963668518
ARIANE 40 R/B           
1 22830U 93061H   25356.18543169  .00000232  00000+0  10098-3 0  9999
2 22830  98.5064  61.5431 0011390 149.1208 211.0648 14.32807368683009
COSMOS 2278             
1 23087U 94023A   25356.08379488 -.00000091  00000+0 -23169-4 0  9992
2 23087  71.0533 337.4610 0007896 163.0690 197.0698 14.14348151633835
SL-16 R/B               
1 23088U 94023B   25356.09489819 -.00000235  00000+0 -96604-4 0  9998
2 23088  70.9986 233.8403 0001914   6.5850 353.5297 14.15000892635114
SL-16 R/B               
1 23343U 94074B   25356.06964662  .00000446  00000+0  66551-4 0  9999
2 23343  97.7191  25.0030 0007987 110.2183 271.9520 14.79299877675779
SL-16 R/B               
1 23405U 94077B   25355.75346012 -.00000092  00000+0 -22339-4 0  9994
2 23405  70.9820 156.4511 0004980 278.1293  81.9265 14.15552875605205
ARIANE 40+ R/B          
1 23561U 95021B   25356.11878274  .00000296  00000+0  10858-3 0  9994
2 23561  98.4639  63.5942 0007007  23.9391  36.2539 14.39702300608087
SL-16 R/B               
1 23705U 95058B   25356.18060494 -.00000247  00000+0 -10217-3 0  9995
2 23705  71.0219 342.9833 0014805 242.9599 117.0014 14.15482287556887
SL-16 R/B               
1 24298U 96051B   25356.12042841 -.00000044  00000+0  28286-5 0  9998
2 24298  70.7595 339.4274 0019484 249.8605 110.0418 14.12397350510693
ORBVIEW 2 (SEASTAR)     
1 24883U 97037A   25355.97704056  .00000257  00000+0  10581-3 0  9990
2 24883  98.8462 153.2843 0001311 303.2772  56.8287 14.35423409497326
